STARLINK-37116          
1 68213U 26053G   26095.63206528 -.00023208  00000+0 -12044-3 0  9990
2 68213  97.2848 331.2782 0001943  85.0205 275.1285 15.80867883  4315
STARLINK-35854          
1 68214U 26053H   26095.63132121  .00091053  00000+0  46846-3 0  9996
2 68214  97.2847 331.2790 0001959 127.0106 233.1342 15.80940353  4297
STARLINK-36272          
1 68215U 26053J   26095.58336806 -.01892165  00000+0 -21158-1 0  9990
2 68215  97.2844 331.1890 0001567  93.8364 260.9958 15.65733364  4225
STARLINK-37014          
1 68216U 26053K   26095.62981903  .00059418  00000+0  30794-3 0  9991
2 68216  97.2847 331.2813 0001919 106.3745 253.7734 15.80878107  4313
STARLINK-37011          
1 68217U 26053L   26095.62906618  .00057585  00000+0  29829-3 0  9992
2 68217  97.2846 331.2823 0001708  61.7669 298.3772 15.80895888  4311
STARLINK-37108          
1 68218U 26053M   26095.62831378  .00035879  00000+0  18671-3 0  9998
2 68218  97.2845 331.2830 0001304  56.1247 304.0146 15.80883006  4310
STARLINK-37106          
1 68219U 26053N   26095.62756441  .00063019  00000+0  32626-3 0  9999
2 68219  97.2844 331.2844 0002076  65.5724 294.5760 15.80889037  4311
STARLINK-37030          
1 68220U 26053P   26095.58336806 -.01881318  00000+0 -12938-1 0  9990
2 68220  97.2847 331.2404 0001530  83.0277  30.1682 15.77689842  4337
STARLINK-37012          
1 68221U 26053Q   26095.62681090  .00110806  00000+0  56952-3 0  9994
2 68221  97.2845 331.2852 0001214  74.9916 285.1486 15.80907721  4316
STARLINK-37110          
1 68222U 26053R   26095.62530745  .00227394  00000+0  11503-2 0  9998
2 68222  97.2831 331.2866 0002268 109.1338 251.0176 15.80947378  4316
STARLINK-37025          
1 68223U 26053S   26095.62455816  .00099752  00000+0  51355-3 0  9999
2 68223  97.2843 331.2871 0001954  69.0000 291.1477 15.80901396  4316
STARLINK-36977          
1 68224U 26053T   26095.58336806 -.00022644  00000+0 -12438-3 0  9999
2 68224  97.2849 331.2435 0001225  84.9635  36.3089 15.79618757  4222
STARLINK-36960          
1 68225U 26053U   26095.62305439  .00072545  00000+0  37497-3 0  9998
2 68225  97.2839 331.2887 0002191  86.6916 273.4603 15.80893698  4291
STARLINK-37038          
1 68226U 26053V   26095.62154939  .00210353  00000+0  10659-2 0  9997
2 68226  97.2840 331.2903 0001400  75.0891 285.0532 15.80953923  4297
STARLINK-37083          
1 68227U 26053W   26095.62230534  .00075517  00000+0  39032-3 0  9992
2 68227  97.2841 331.2898 0001394  77.6456 282.4968 15.80886600  4289
STARLINK-37050          
1 68228U 26053X   26095.62079996  .00066370  00000+0  34352-3 0  9993
2 68228  97.2838 331.2923 0001584  87.6970 272.4480 15.80884424  4299
