[{"OBJECT_NAME":"STARLINK-37116","OBJECT_ID":"2026-053G","EPOCH":"2026-04-05T15:10:10.440192","MEAN_MOTION":15.80867883,"ECCENTRICITY":0.00019431,"INCLINATION":97.2848,"RA_OF_ASC_NODE":331.2782,"ARG_OF_PERICENTER":85.0205,"MEAN_ANOMALY":275.1285,"EPHEMERIS_TYPE":0,"CLASSIFICATION_TYPE":"U","NORAD_CAT_ID":68213,"ELEMENT_SET_NO":999,"REV_AT_EPOCH":431,"BSTAR":-0.00012044481,"MEAN_MOTION_DOT":-0.00023208,"MEAN_MOTION_DDOT":0},{"OBJECT_NAME":"STARLINK-35854","OBJECT_ID":"2026-053H","EPOCH":"2026-04-05T15:09:06.152544","MEAN_MOTION":15.80940353,"ECCENTRICITY":0.00019593,"INCLINATION":97.2847,"RA_OF_ASC_NODE":331.279,"ARG_OF_PERICENTER":127.0106,"MEAN_ANOMALY":233.1342,"EPHEMERIS_TYPE":0,"CLASSIFICATION_TYPE":"U","NORAD_CAT_ID":68214,"ELEMENT_SET_NO":999,"REV_AT_EPOCH":429,"BSTAR":0.00046846209,"MEAN_MOTION_DOT":0.00091053,"MEAN_MOTION_DDOT":0},{"OBJECT_NAME":"STARLINK-36272","OBJECT_ID":"2026-053J","EPOCH":"2026-04-05T14:00:03.000384","MEAN_MOTION":15.65733364,"ECCENTRICITY":0.00015673,"INCLINATION":97.2844,"RA_OF_ASC_NODE":331.189,"ARG_OF_PERICENTER":93.8364,"MEAN_ANOMALY":260.9958,"EPHEMERIS_TYPE":0,"CLASSIFICATION_TYPE":"U","NORAD_CAT_ID":68215,"ELEMENT_SET_NO":999,"REV_AT_EPOCH":422,"BSTAR":-0.021158252,"MEAN_MOTION_DOT":-0.01892165,"MEAN_MOTION_DDOT":0},{"OBJECT_NAME":"STARLINK-37014","OBJECT_ID":"2026-053K","EPOCH":"2026-04-05T15:06:56.364192","MEAN_MOTION":15.80878107,"ECCENTRICITY":0.00019196,"INCLINATION":97.2847,"RA_OF_ASC_NODE":331.2813,"ARG_OF_PERICENTER":106.3745,"MEAN_ANOMALY":253.7734,"EPHEMERIS_TYPE":0,"CLASSIFICATION_TYPE":"U","NORAD_CAT_ID":68216,"ELEMENT_SET_NO":999,"REV_AT_EPOCH":431,"BSTAR":0.00030794322,"MEAN_MOTION_DOT":0.00059418,"MEAN_MOTION_DDOT":0},{"OBJECT_NAME":"STARLINK-37011","OBJECT_ID":"2026-053L","EPOCH":"2026-04-05T15:05:51.317952","MEAN_MOTION":15.80895888,"ECCENTRICITY":0.00017088,"INCLINATION":97.2846,"RA_OF_ASC_NODE":331.2823,"ARG_OF_PERICENTER":61.7669,"MEAN_ANOMALY":298.3772,"EPHEMERIS_TYPE":0,"CLASSIFICATION_TYPE":"U","NORAD_CAT_ID":68217,"ELEMENT_SET_NO":999,"REV_AT_EPOCH":431,"BSTAR":0.0002982934,"MEAN_MOTION_DOT":0.00057585,"MEAN_MOTION_DDOT":0},{"OBJECT_NAME":"STARLINK-37108","OBJECT_ID":"2026-053M","EPOCH":"2026-04-05T15:04:46.310592","MEAN_MOTION":15.80883006,"ECCENTRICITY":0.00013044,"INCLINATION":97.2845,"RA_OF_ASC_NODE":331.283,"ARG_OF_PERICENTER":56.1247,"MEAN_ANOMALY":304.0146,"EPHEMERIS_TYPE":0,"CLASSIFICATION_TYPE":"U","NORAD_CAT_ID":68218,"ELEMENT_SET_NO":999,"REV_AT_EPOCH":431,"BSTAR":0.00018671193,"MEAN_MOTION_DOT":0.00035879,"MEAN_MOTION_DDOT":0},{"OBJECT_NAME":"STARLINK-37106","OBJECT_ID":"2026-053N","EPOCH":"2026-04-05T15:03:41.565024","MEAN_MOTION":15.80889037,"ECCENTRICITY":0.00020765,"INCLINATION":97.2844,"RA_OF_ASC_NODE":331.2844,"ARG_OF_PERICENTER":65.5724,"MEAN_ANOMALY":294.576,"EPHEMERIS_TYPE":0,"CLASSIFICATION_TYPE":"U","NORAD_CAT_ID":68219,"ELEMENT_SET_NO":999,"REV_AT_EPOCH":431,"BSTAR":0.0003262575,"MEAN_MOTION_DOT":0.00063019,"MEAN_MOTION_DDOT":0},{"OBJECT_NAME":"STARLINK-37030","OBJECT_ID":"2026-053P","EPOCH":"2026-04-05T14:00:03.000384","MEAN_MOTION":15.77689842,"ECCENTRICITY":0.00015306,"INCLINATION":97.2847,"RA_OF_ASC_NODE":331.2404,"ARG_OF_PERICENTER":83.0277,"MEAN_ANOMALY":30.1682,"EPHEMERIS_TYPE":0,"CLASSIFICATION_TYPE":"U","NORAD_CAT_ID":68220,"ELEMENT_SET_NO":999,"REV_AT_EPOCH":433,"BSTAR":-0.012937863,"MEAN_MOTION_DOT":-0.01881318,"MEAN_MOTION_DDOT":0},{"OBJECT_NAME":"STARLINK-37012","OBJECT_ID":"2026-053Q","EPOCH":"2026-04-05T15:02:36.461760","MEAN_MOTION":15.80907721,"ECCENTRICITY":0.00012147,"INCLINATION":97.2845,"RA_OF_ASC_NODE":331.2852,"ARG_OF_PERICENTER":74.9916,"MEAN_ANOMALY":285.1486,"EPHEMERIS_TYPE":0,"CLASSIFICATION_TYPE":"U","NORAD_CAT_ID":68221,"ELEMENT_SET_NO":999,"REV_AT_EPOCH":431,"BSTAR":0.00056951729,"MEAN_MOTION_DOT":0.00110806,"MEAN_MOTION_DDOT":0},{"OBJECT_NAME":"STARLINK-37110","OBJECT_ID":"2026-053R","EPOCH":"2026-04-05T15:00:26.563680","MEAN_MOTION":15.80947378,"ECCENTRICITY":0.00022687,"INCLINATION":97.2831,"RA_OF_ASC_NODE":331.2866,"ARG_OF_PERICENTER":109.1338,"MEAN_ANOMALY":251.0176,"EPHEMERIS_TYPE":0,"CLASSIFICATION_TYPE":"U","NORAD_CAT_ID":68222,"ELEMENT_SET_NO":999,"REV_AT_EPOCH":431,"BSTAR":0.0011502551,"MEAN_MOTION_DOT":0.00227394,"MEAN_MOTION_DDOT":0},{"OBJECT_NAME":"STARLINK-37025","OBJECT_ID":"2026-053S","EPOCH":"2026-04-05T14:59:21.825024","MEAN_MOTION":15.80901396,"ECCENTRICITY":0.00019545,"INCLINATION":97.2843,"RA_OF_ASC_NODE":331.2871,"ARG_OF_PERICENTER":69,"MEAN_ANOMALY":291.1477,"EPHEMERIS_TYPE":0,"CLASSIFICATION_TYPE":"U","NORAD_CAT_ID":68223,"ELEMENT_SET_NO":999,"REV_AT_EPOCH":431,"BSTAR":0.00051354752,"MEAN_MOTION_DOT":0.00099752,"MEAN_MOTION_DDOT":0},{"OBJECT_NAME":"STARLINK-36977","OBJECT_ID":"2026-053T","EPOCH":"2026-04-05T14:00:03.000384","MEAN_MOTION":15.79618757,"ECCENTRICITY":0.00012251,"INCLINATION":97.2849,"RA_OF_ASC_NODE":331.2435,"ARG_OF_PERICENTER":84.9635,"MEAN_ANOMALY":36.3089,"EPHEMERIS_TYPE":0,"CLASSIFICATION_TYPE":"U","NORAD_CAT_ID":68224,"ELEMENT_SET_NO":999,"REV_AT_EPOCH":422,"BSTAR":-0.0001243836,"MEAN_MOTION_DOT":-0.00022644,"MEAN_MOTION_DDOT":0},{"OBJECT_NAME":"STARLINK-36960","OBJECT_ID":"2026-053U","EPOCH":"2026-04-05T14:57:11.899296","MEAN_MOTION":15.80893698,"ECCENTRICITY":0.00021911,"INCLINATION":97.2839,"RA_OF_ASC_NODE":331.2887,"ARG_OF_PERICENTER":86.6916,"MEAN_ANOMALY":273.4603,"EPHEMERIS_TYPE":0,"CLASSIFICATION_TYPE":"U","NORAD_CAT_ID":68225,"ELEMENT_SET_NO":999,"REV_AT_EPOCH":429,"BSTAR":0.00037496934,"MEAN_MOTION_DOT":0.00072545,"MEAN_MOTION_DDOT":0},{"OBJECT_NAME":"STARLINK-37038","OBJECT_ID":"2026-053V","EPOCH":"2026-04-05T14:55:01.867296","MEAN_MOTION":15.80953923,"ECCENTRICITY":0.00014001,"INCLINATION":97.284,"RA_OF_ASC_NODE":331.2903,"ARG_OF_PERICENTER":75.0891,"MEAN_ANOMALY":285.0532,"EPHEMERIS_TYPE":0,"CLASSIFICATION_TYPE":"U","NORAD_CAT_ID":68226,"ELEMENT_SET_NO":999,"REV_AT_EPOCH":429,"BSTAR":0.0010659265,"MEAN_MOTION_DOT":0.00210353,"MEAN_MOTION_DDOT":0},{"OBJECT_NAME":"STARLINK-37083","OBJECT_ID":"2026-053W","EPOCH":"2026-04-05T14:56:07.181376","MEAN_MOTION":15.808866,"ECCENTRICITY":0.00013944,"INCLINATION":97.2841,"RA_OF_ASC_NODE":331.2898,"ARG_OF_PERICENTER":77.6456,"MEAN_ANOMALY":282.4968,"EPHEMERIS_TYPE":0,"CLASSIFICATION_TYPE":"U","NORAD_CAT_ID":68227,"ELEMENT_SET_NO":999,"REV_AT_EPOCH":428,"BSTAR":0.00039032214,"MEAN_MOTION_DOT":0.00075517,"MEAN_MOTION_DDOT":0},{"OBJECT_NAME":"STARLINK-37050","OBJECT_ID":"2026-053X","EPOCH":"2026-04-05T14:53:57.116544","MEAN_MOTION":15.80884424,"ECCENTRICITY":0.00015848,"INCLINATION":97.2838,"RA_OF_ASC_NODE":331.2923,"ARG_OF_PERICENTER":87.697,"MEAN_ANOMALY":272.448,"EPHEMERIS_TYPE":0,"CLASSIFICATION_TYPE":"U","NORAD_CAT_ID":68228,"ELEMENT_SET_NO":999,"REV_AT_EPOCH":429,"BSTAR":0.00034352373,"MEAN_MOTION_DOT":0.0006637,"MEAN_MOTION_DDOT":0}]
